CCSDS_OMM_VERS = 2.0
CREATION_DATE  = 
ORIGINATOR     = 

OBJECT_NAME    = SITRO-TD-3
OBJECT_ID      = 2025-313Y
CENTER_NAME    = EARTH
REF_FRAME      = TEME
TIME_SYSTEM    = UTC
MEAN_ELEMENT_THEORY = SGP/SGP4

EPOCH          = 2026-01-25T03:02:27.876192
MEAN_MOTION    = 15.20476430
ECCENTRICITY   = .0016252
INCLINATION    = 97.4096
RA_OF_ASC_NODE = 102.1211
ARG_OF_PERICENTER = 142.7262
MEAN_ANOMALY   = 217.5105

EPHEMERIS_TYPE = 0
CLASSIFICATION_TYPE = U
NORAD_CAT_ID   = 67270
ELEMENT_SET_NO = 999
REV_AT_EPOCH   = 419
BSTAR          = .74629E-3
MEAN_MOTION_DOT = .16309E-3
MEAN_MOTION_DDOT = 0

CCSDS_OMM_VERS = 2.0
CREATION_DATE  = 
ORIGINATOR     = 

OBJECT_NAME    = 2025-313Z
OBJECT_ID      = 2025-313Z
CENTER_NAME    = EARTH
REF_FRAME      = TEME
TIME_SYSTEM    = UTC
MEAN_ELEMENT_THEORY = SGP/SGP4

EPOCH          = 2026-01-25T03:05:39.272064
MEAN_MOTION    = 15.20166931
ECCENTRICITY   = .0016422
INCLINATION    = 97.4090
RA_OF_ASC_NODE = 102.1080
ARG_OF_PERICENTER = 138.9180
MEAN_ANOMALY   = 221.3295

EPHEMERIS_TYPE = 0
CLASSIFICATION_TYPE = U
NORAD_CAT_ID   = 67271
ELEMENT_SET_NO = 999
REV_AT_EPOCH   = 419
BSTAR          = .38172E-3
MEAN_MOTION_DOT = .8225E-4
MEAN_MOTION_DDOT = 0

CCSDS_OMM_VERS = 2.0
CREATION_DATE  = 
ORIGINATOR     = 

OBJECT_NAME    = 2025-313AA
OBJECT_ID      = 2025-313AA
CENTER_NAME    = EARTH
REF_FRAME      = TEME
TIME_SYSTEM    = UTC
MEAN_ELEMENT_THEORY = SGP/SGP4

EPOCH          = 2026-01-25T02:58:16.040928
MEAN_MOTION    = 15.20704641
ECCENTRICITY   = .001598
INCLINATION    = 97.4094
RA_OF_ASC_NODE = 102.1137
ARG_OF_PERICENTER = 143.0737
MEAN_ANOMALY   = 217.1602

EPHEMERIS_TYPE = 0
CLASSIFICATION_TYPE = U
NORAD_CAT_ID   = 67272
ELEMENT_SET_NO = 999
REV_AT_EPOCH   = 419
BSTAR          = .8511E-3
MEAN_MOTION_DOT = .18737E-3
MEAN_MOTION_DDOT = 0

CCSDS_OMM_VERS = 2.0
CREATION_DATE  = 
ORIGINATOR     = 

OBJECT_NAME    = 2025-313AB
OBJECT_ID      = 2025-313AB
CENTER_NAME    = EARTH
REF_FRAME      = TEME
TIME_SYSTEM    = UTC
MEAN_ELEMENT_THEORY = SGP/SGP4

EPOCH          = 2026-01-25T03:05:47.501664
MEAN_MOTION    = 15.20108685
ECCENTRICITY   = .0015414
INCLINATION    = 97.4109
RA_OF_ASC_NODE = 102.1133
ARG_OF_PERICENTER = 147.0130
MEAN_ANOMALY   = 213.2070

EPHEMERIS_TYPE = 0
CLASSIFICATION_TYPE = U
NORAD_CAT_ID   = 67273
ELEMENT_SET_NO = 999
REV_AT_EPOCH   = 419
BSTAR          = .27656E-3
MEAN_MOTION_DOT = .5926E-4
MEAN_MOTION_DDOT = 0

CCSDS_OMM_VERS = 2.0
CREATION_DATE  = 
ORIGINATOR     = 

OBJECT_NAME    = 2025-313AC
OBJECT_ID      = 2025-313AC
CENTER_NAME    = EARTH
REF_FRAME      = TEME
TIME_SYSTEM    = UTC
MEAN_ELEMENT_THEORY = SGP/SGP4

EPOCH          = 2026-01-25T03:02:08.850048
MEAN_MOTION    = 15.20384284
ECCENTRICITY   = .0016113
INCLINATION    = 97.4084
RA_OF_ASC_NODE = 102.1165
ARG_OF_PERICENTER = 142.1129
MEAN_ANOMALY   = 218.1244

EPHEMERIS_TYPE = 0
CLASSIFICATION_TYPE = U
NORAD_CAT_ID   = 67274
ELEMENT_SET_NO = 999
REV_AT_EPOCH   = 419
BSTAR          = .54498E-3
MEAN_MOTION_DOT = .11851E-3
MEAN_MOTION_DDOT = 0

CCSDS_OMM_VERS = 2.0
CREATION_DATE  = 
ORIGINATOR     = 

OBJECT_NAME    = 2025-313AD
OBJECT_ID      = 2025-313AD
CENTER_NAME    = EARTH
REF_FRAME      = TEME
TIME_SYSTEM    = UTC
MEAN_ELEMENT_THEORY = SGP/SGP4

EPOCH          = 2026-01-25T03:00:37.413792
MEAN_MOTION    = 15.20456186
ECCENTRICITY   = .0015264
INCLINATION    = 97.4058
RA_OF_ASC_NODE = 102.1091
ARG_OF_PERICENTER = 144.8527
MEAN_ANOMALY   = 215.3718

EPHEMERIS_TYPE = 0
CLASSIFICATION_TYPE = U
NORAD_CAT_ID   = 67275
ELEMENT_SET_NO = 999
REV_AT_EPOCH   = 419
BSTAR          = .55746E-3
MEAN_MOTION_DOT = .12146E-3
MEAN_MOTION_DDOT = 0

CCSDS_OMM_VERS = 2.0
CREATION_DATE  = 
ORIGINATOR     = 

OBJECT_NAME    = 2025-313AE
OBJECT_ID      = 2025-313AE
CENTER_NAME    = EARTH
REF_FRAME      = TEME
TIME_SYSTEM    = UTC
MEAN_ELEMENT_THEORY = SGP/SGP4

EPOCH          = 2026-01-25T03:00:36.084096
MEAN_MOTION    = 15.20450302
ECCENTRICITY   = .0015238
INCLINATION    = 97.4063
RA_OF_ASC_NODE = 102.1104
ARG_OF_PERICENTER = 144.9144
MEAN_ANOMALY   = 215.3098

EPHEMERIS_TYPE = 0
CLASSIFICATION_TYPE = U
NORAD_CAT_ID   = 67276
ELEMENT_SET_NO = 999
REV_AT_EPOCH   = 419
BSTAR          = .54785E-3
MEAN_MOTION_DOT = .11933E-3
MEAN_MOTION_DDOT = 0

CCSDS_OMM_VERS = 2.0
CREATION_DATE  = 
ORIGINATOR     = 

OBJECT_NAME    = 2025-313AF
OBJECT_ID      = 2025-313AF
CENTER_NAME    = EARTH
REF_FRAME      = TEME
TIME_SYSTEM    = UTC
MEAN_ELEMENT_THEORY = SGP/SGP4

EPOCH          = 2026-01-25T03:01:19.129440
MEAN_MOTION    = 15.20397832
ECCENTRICITY   = .0015227
INCLINATION    = 97.4066
RA_OF_ASC_NODE = 102.1106
ARG_OF_PERICENTER = 144.7641
MEAN_ANOMALY   = 215.4604

EPHEMERIS_TYPE = 0
CLASSIFICATION_TYPE = U
NORAD_CAT_ID   = 67277
ELEMENT_SET_NO = 999
REV_AT_EPOCH   = 419
BSTAR          = .50395E-3
MEAN_MOTION_DOT = .10953E-3
MEAN_MOTION_DDOT = 0

CCSDS_OMM_VERS = 2.0
CREATION_DATE  = 
ORIGINATOR     = 

OBJECT_NAME    = 2025-313AG
OBJECT_ID      = 2025-313AG
CENTER_NAME    = EARTH
REF_FRAME      = TEME
TIME_SYSTEM    = UTC
MEAN_ELEMENT_THEORY = SGP/SGP4

EPOCH          = 2026-01-25T03:00:48.876480
MEAN_MOTION    = 15.20453234
ECCENTRICITY   = .0015062
INCLINATION    = 97.4068
RA_OF_ASC_NODE = 102.1121
ARG_OF_PERICENTER = 144.9500
MEAN_ANOMALY   = 215.2730

EPHEMERIS_TYPE = 0
CLASSIFICATION_TYPE = U
NORAD_CAT_ID   = 67278
ELEMENT_SET_NO = 999
REV_AT_EPOCH   = 420
BSTAR          = .50826E-3
MEAN_MOTION_DOT = .11064E-3
MEAN_MOTION_DDOT = 0

CCSDS_OMM_VERS = 2.0
CREATION_DATE  = 
ORIGINATOR     = 

OBJECT_NAME    = GALAPAGOS-UTE-SWSU
OBJECT_ID      = 2025-313AH
CENTER_NAME    = EARTH
REF_FRAME      = TEME
TIME_SYSTEM    = UTC
MEAN_ELEMENT_THEORY = SGP/SGP4

EPOCH          = 2026-01-25T02:59:12.058368
MEAN_MOTION    = 15.20521584
ECCENTRICITY   = .001573
INCLINATION    = 97.4078
RA_OF_ASC_NODE = 102.1174
ARG_OF_PERICENTER = 141.8112
MEAN_ANOMALY   = 218.4241

EPHEMERIS_TYPE = 0
CLASSIFICATION_TYPE = U
NORAD_CAT_ID   = 67279
ELEMENT_SET_NO = 999
REV_AT_EPOCH   = 419
BSTAR          = .58991E-3
MEAN_MOTION_DOT = .12885E-3
MEAN_MOTION_DDOT = 0

CCSDS_OMM_VERS = 2.0
CREATION_DATE  = 
ORIGINATOR     = 

OBJECT_NAME    = 2025-313AJ
OBJECT_ID      = 2025-313AJ
CENTER_NAME    = EARTH
REF_FRAME      = TEME
TIME_SYSTEM    = UTC
MEAN_ELEMENT_THEORY = SGP/SGP4

EPOCH          = 2026-01-25T02:51:02.544480
MEAN_MOTION    = 15.20753393
ECCENTRICITY   = .0014658
INCLINATION    = 97.4149
RA_OF_ASC_NODE = 102.1378
ARG_OF_PERICENTER = 138.7657
MEAN_ANOMALY   = 221.4689

EPHEMERIS_TYPE = 0
CLASSIFICATION_TYPE = U
NORAD_CAT_ID   = 67280
ELEMENT_SET_NO = 999
REV_AT_EPOCH   = 419
BSTAR          = .42744E-3
MEAN_MOTION_DOT = .9372E-4
MEAN_MOTION_DDOT = 0

CCSDS_OMM_VERS = 2.0
CREATION_DATE  = 
ORIGINATOR     = 

OBJECT_NAME    = 2025-313AK
OBJECT_ID      = 2025-313AK
CENTER_NAME    = EARTH
REF_FRAME      = TEME
TIME_SYSTEM    = UTC
MEAN_ELEMENT_THEORY = SGP/SGP4

EPOCH          = 2026-01-25T02:48:40.019040
MEAN_MOTION    = 15.20846311
ECCENTRICITY   = .001338
INCLINATION    = 97.4032
RA_OF_ASC_NODE = 102.1086
ARG_OF_PERICENTER = 137.7882
MEAN_ANOMALY   = 222.4386

EPHEMERIS_TYPE = 0
CLASSIFICATION_TYPE = U
NORAD_CAT_ID   = 67281
ELEMENT_SET_NO = 999
REV_AT_EPOCH   = 419
BSTAR          = .43122E-3
MEAN_MOTION_DOT = .9477E-4
MEAN_MOTION_DDOT = 0

