SITRO-TD-3              
1 67270U 25313Y   26025.12671153  .00016309  00000+0  74629-3 0  9996
2 67270  97.4096 102.1211 0016252 142.7262 217.5105 15.20476430  4194
2025-313Z               
1 67271U 25313Z   26025.12892676  .00008225  00000+0  38172-3 0  9993
2 67271  97.4090 102.1080 0016422 138.9180 221.3295 15.20166931  4193
2025-313AA              
1 67272U 25313AA  26025.12379677  .00018737  00000+0  85110-3 0  9998
2 67272  97.4094 102.1137 0015980 143.0737 217.1602 15.20704641  4195
2025-313AB              
1 67273U 25313AB  26025.12902201  .00005926  00000+0  27656-3 0  9991
2 67273  97.4109 102.1133 0015414 147.0130 213.2070 15.20108685  4194
2025-313AC              
1 67274U 25313AC  26025.12649132  .00011851  00000+0  54498-3 0  9991
2 67274  97.4084 102.1165 0016113 142.1129 218.1244 15.20384284  4191
2025-313AD              
1 67275U 25313AD  26025.12543303  .00012146  00000+0  55746-3 0  9990
2 67275  97.4058 102.1091 0015264 144.8527 215.3718 15.20456186  4194
2025-313AE              
1 67276U 25313AE  26025.12541764  .00011933  00000+0  54785-3 0  9995
2 67276  97.4063 102.1104 0015238 144.9144 215.3098 15.20450302  4198
2025-313AF              
1 67277U 25313AF  26025.12591585  .00010953  00000+0  50395-3 0  9996
2 67277  97.4066 102.1106 0015227 144.7641 215.4604 15.20397832  4194
2025-313AG              
1 67278U 25313AG  26025.12556570  .00011064  00000+0  50826-3 0  9995
2 67278  97.4068 102.1121 0015062 144.9500 215.2730 15.20453234  4206
GALAPAGOS-UTE-SWSU      
1 67279U 25313AH  26025.12444512  .00012885  00000+0  58991-3 0  9991
2 67279  97.4078 102.1174 0015730 141.8112 218.4241 15.20521584  4197
2025-313AJ              
1 67280U 25313AJ  26025.11877945  .00009372  00000+0  42744-3 0  9998
2 67280  97.4149 102.1378 0014658 138.7657 221.4689 15.20753393  4196
2025-313AK              
1 67281U 25313AK  26025.11712985  .00009477  00000+0  43122-3 0  9998
2 67281  97.4032 102.1086 0013380 137.7882 222.4386 15.20846311  4192
